start=new Date('2022-01-14T00:00:00.000Z').valueOf();
sats=[{"PERIAPSIS":"545.793","TLE_LINE2":"2 46677  53.0530 206.6484 0002090  70.8087 289.3128 15.06391198 68650","OBJECT_NAME":"STARLINK-1766","DECAY_DATE":null,"SITE":"AFETR","CLASSIFICATION_TYPE":"U","MEAN_MOTION_DOT":"0.00000784","ELEMENT_SET_NO":"999","EPHEMERIS_TYPE":"0","PERIOD":"95.593","MEAN_MOTION_DDOT":"0.0000000000000","REF_FRAME":"TEME","INCLINATION":"53.0530","BSTAR":"0.00007156200000","FILE":"3272312","ECCENTRICITY":"0.00020900","GP_ID":"193811671","APOAPSIS":"548.688","COUNTRY_CODE":"US","MEAN_MOTION":"15.06391198","SEMIMAJOR_AXIS":"6925.376","ARG_OF_PERICENTER":"70.8087","LAUNCH_DATE":"2020-10-18","REV_AT_EPOCH":"6865","CENTER_NAME":"EARTH","TLE_LINE1":"1 46677U 20073H   22013.81496437  .00000784  00000-0  71562-4 0  9996","NORAD_CAT_ID":"46677","EPOCH":"2022-01-13T19:33:32.921568","MEAN_ELEMENT_THEORY":"SGP4","RA_OF_ASC_NODE":"206.6484","TIME_SYSTEM":"UTC","OBJECT_TYPE":"PAYLOAD","RCS_SIZE":"LARGE","MEAN_ANOMALY":"289.3128","OBJECT_ID":"2020-073H"},{"RCS_SIZE":"LARGE","TIME_SYSTEM":"UTC","OBJECT_TYPE":"PAYLOAD","RA_OF_ASC_NODE":"186.9038","MEAN_ELEMENT_THEORY":"SGP4","EPOCH":"2022-01-13T18:05:58.908192","TLE_LINE1":"1 46679U 20073K   22013.75415403  .00001171  00000-0  97490-4 0  9994","CENTER_NAME":"EARTH","NORAD_CAT_ID":"46679","OBJECT_ID":"2020-073K","MEAN_ANOMALY":"286.7614","LAUNCH_DATE":"2020-10-18","SEMIMAJOR_AXIS":"6925.356","ARG_OF_PERICENTER":"73.3621","MEAN_MOTION":"15.06397663","COUNTRY_CODE":"US","REV_AT_EPOCH":"6892","BSTAR":"0.00009749000000","INCLINATION":"53.0561","REF_FRAME":"TEME","GP_ID":"193810419","APOAPSIS":"548.771","ECCENTRICITY":"0.00022380","FILE":"3272312","ELEMENT_SET_NO":"999","MEAN_MOTION_DOT":"0.00001171","CLASSIFICATION_TYPE":"U","SITE":"AFETR","DECAY_DATE":null,"OBJECT_NAME":"STARLINK-1773","TLE_LINE2":"2 46679  53.0561 186.9038 0002238  73.3621 286.7614 15.06397663 68921","PERIAPSIS":"545.671","PERIOD":"95.592","MEAN_MOTION_DDOT":"0.0000000000000","EPHEMERIS_TYPE":"0"},{"LAUNCH_DATE":"2020-10-18","COUNTRY_CODE":"US","MEAN_MOTION":"15.06396926","SEMIMAJOR_AXIS":"6925.358","ARG_OF_PERICENTER":"70.5502","REV_AT_EPOCH":"6845","RCS_SIZE":"LARGE","TIME_SYSTEM":"UTC","OBJECT_TYPE":"PAYLOAD","RA_OF_ASC_NODE":"221.2988","CENTER_NAME":"EARTH","TLE_LINE1":"1 46680U 20073L   22013.88914611 -.00000776  00000-0 -33161-4 0  9992","NORAD_CAT_ID":"46680","MEAN_ELEMENT_THEORY":"SGP4","EPOCH":"2022-01-13T21:20:22.223904","OBJECT_ID":"2020-073L","MEAN_ANOMALY":"289.5734","MEAN_MOTION_DOT":"-0.00000776","ELEMENT_SET_NO":"999","DECAY_DATE":null,"CLASSIFICATION_TYPE":"U","SITE":"AFETR","OBJECT_NAME":"STARLINK-1774","TLE_LINE2":"2 46680  53.0533 221.2988 0002295  70.5502 289.5734 15.06396926 68452","PERIAPSIS":"545.634","PERIOD":"95.592","MEAN_MOTION_DDOT":"0.0000000000000","EPHEMERIS_TYPE":"0","BSTAR":"-0.00003316100000","INCLINATION":"53.0533","REF_FRAME":"TEME","APOAPSIS":"548.812","GP_ID":"193810669","ECCENTRICITY":"0.00022950","FILE":"3272312"},{"REV_AT_EPOCH":"6844","LAUNCH_DATE":"2020-10-18","MEAN_MOTION":"15.06394371","COUNTRY_CODE":"US","ARG_OF_PERICENTER":"67.7214","SEMIMAJOR_AXIS":"6925.366","OBJECT_ID":"2020-073M","MEAN_ANOMALY":"292.4038","OBJECT_TYPE":"PAYLOAD","TIME_SYSTEM":"UTC","RCS_SIZE":"LARGE","CENTER_NAME":"EARTH","TLE_LINE1":"1 46681U 20073M   22013.85965648 -.00001070  00000-0 -52923-4 0  9991","NORAD_CAT_ID":"46681","MEAN_ELEMENT_THEORY":"SGP4","EPOCH":"2022-01-13T20:37:54.319872","RA_OF_ASC_NODE":"221.4513","MEAN_MOTION_DDOT":"0.0000000000000","PERIOD":"95.592","EPHEMERIS_TYPE":"0","DECAY_DATE":null,"SITE":"AFETR","CLASSIFICATION_TYPE":"U","MEAN_MOTION_DOT":"-0.00001070","ELEMENT_SET_NO":"999","PERIAPSIS":"545.510","TLE_LINE2":"2 46681  53.0536 221.4513 0002485  67.7214 292.4038 15.06394371 68442","OBJECT_NAME":"STARLINK-1775","GP_ID":"193811921","APOAPSIS":"548.952","FILE":"3272312","ECCENTRICITY":"0.00024850","INCLINATION":"53.0536","BSTAR":"-0.00005292300000","REF_FRAME":"TEME"},{"RCS_SIZE":"LARGE","OBJECT_TYPE":"PAYLOAD","TIME_SYSTEM":"UTC","RA_OF_ASC_NODE":"221.3217","EPOCH":"2022-01-13T21:15:03.738816","MEAN_ELEMENT_THEORY":"SGP4","TLE_LINE1":"1 46682U 20073N   22013.88545994  .00000857  00000-0  76453-4 0  9997","CENTER_NAME":"EARTH","NORAD_CAT_ID":"46682","OBJECT_ID":"2020-073N","MEAN_ANOMALY":"292.3145","LAUNCH_DATE":"2020-10-18","ARG_OF_PERICENTER":"67.8099","SEMIMAJOR_AXIS":"6925.369","MEAN_MOTION":"15.06393361","COUNTRY_CODE":"US","REV_AT_EPOCH":"6845","BSTAR":"0.00007645300000","INCLINATION":"53.0524","REF_FRAME":"TEME","GP_ID":"193812172","APOAPSIS":"548.903","FILE":"3272312","ECCENTRICITY":"0.00024100","ELEMENT_SET_NO":"999","MEAN_MOTION_DOT":"0.00000857","CLASSIFICATION_TYPE":"U","SITE":"AFETR","DECAY_DATE":null,"OBJECT_NAME":"STARLINK-1776","PERIAPSIS":"545.565","TLE_LINE2":"2 46682  53.0524 221.3217 0002410  67.8099 292.3145 15.06393361 68457","MEAN_MOTION_DDOT":"0.0000000000000","PERIOD":"95.593","EPHEMERIS_TYPE":"0"},{"RCS_SIZE":"LARGE","OBJECT_TYPE":"PAYLOAD","TIME_SYSTEM":"UTC","RA_OF_ASC_NODE":"206.6745","MEAN_ELEMENT_THEORY":"SGP4","EPOCH":"2022-01-13T19:22:56.247744","CENTER_NAME":"EARTH","TLE_LINE1":"1 46684U 20073Q   22013.80759546  .00000705  00000-0  66238-4 0  9993","NORAD_CAT_ID":"46684","OBJECT_ID":"2020-073Q","MEAN_ANOMALY":"290.6810","LAUNCH_DATE":"2020-10-18","ARG_OF_PERICENTER":"69.4416","SEMIMAJOR_AXIS":"6925.368","MEAN_MOTION":"15.06393630","COUNTRY_CODE":"US","REV_AT_EPOCH":"6865","BSTAR":"0.00006623800000","INCLINATION":"53.0524","REF_FRAME":"TEME","APOAPSIS":"548.768","GP_ID":"193810920","FILE":"3272312","ECCENTRICITY":"0.00022160","ELEMENT_SET_NO":"999","MEAN_MOTION_DOT":"0.00000705","CLASSIFICATION_TYPE":"U","SITE":"AFETR","DECAY_DATE":null,"OBJECT_NAME":"STARLINK-1780","PERIAPSIS":"545.698","TLE_LINE2":"2 46684  53.0524 206.6745 0002216  69.4416 290.6810 15.06393630 68657","PERIOD":"95.593","MEAN_MOTION_DDOT":"0.0000000000000","EPHEMERIS_TYPE":"0"},{"LAUNCH_DATE":"2020-10-18","MEAN_MOTION":"15.06395892","COUNTRY_CODE":"US","SEMIMAJOR_AXIS":"6925.361","ARG_OF_PERICENTER":"69.6504","REV_AT_EPOCH":"6843","RCS_SIZE":"LARGE","TIME_SYSTEM":"UTC","OBJECT_TYPE":"PAYLOAD","RA_OF_ASC_NODE":"221.7257","CENTER_NAME":"EARTH","TLE_LINE1":"1 46685U 20073R   22013.79699548  .00001295  00000-0  10585-3 0  9995","NORAD_CAT_ID":"46685","EPOCH":"2022-01-13T19:07:40.409472","MEAN_ELEMENT_THEORY":"SGP4","OBJECT_ID":"2020-073R","MEAN_ANOMALY":"290.4742","MEAN_MOTION_DOT":"0.00001295","ELEMENT_SET_NO":"999","DECAY_DATE":null,"CLASSIFICATION_TYPE":"U","SITE":"AFETR","OBJECT_NAME":"STARLINK-1781","TLE_LINE2":"2 46685  53.0562 221.7257 0002390  69.6504 290.4742 15.06395892 68439","PERIAPSIS":"545.571","MEAN_MOTION_DDOT":"0.0000000000000","PERIOD":"95.592","EPHEMERIS_TYPE":"0","BSTAR":"0.00010585000000","INCLINATION":"53.0562","REF_FRAME":"TEME","GP_ID":"193811170","APOAPSIS":"548.881","ECCENTRICITY":"0.00023900","FILE":"3272312"},{"FILE":"3272312","ECCENTRICITY":"0.00023660","GP_ID":"193811421","APOAPSIS":"548.873","REF_FRAME":"TEME","INCLINATION":"53.0542","BSTAR":"-0.00005508100000","EPHEMERIS_TYPE":"0","MEAN_MOTION_DDOT":"0.0000000000000","PERIOD":"95.593","TLE_LINE2":"2 46686  53.0542 221.5084 0002366  69.2334 290.8909 15.06393052 68440","PERIAPSIS":"545.596","OBJECT_NAME":"STARLINK-1783","DECAY_DATE":null,"CLASSIFICATION_TYPE":"U","SITE":"AFETR","MEAN_MOTION_DOT":"-0.00001102","ELEMENT_SET_NO":"999","MEAN_ANOMALY":"290.8909","OBJECT_ID":"2020-073S","TLE_LINE1":"1 46686U 20073S   22013.84491143 -.00001102  00000-0 -55081-4 0  9993","NORAD_CAT_ID":"46686","CENTER_NAME":"EARTH","EPOCH":"2022-01-13T20:16:40.347552","MEAN_ELEMENT_THEORY":"SGP4","RA_OF_ASC_NODE":"221.5084","TIME_SYSTEM":"UTC","OBJECT_TYPE":"PAYLOAD","RCS_SIZE":"LARGE","REV_AT_EPOCH":"6844","MEAN_MOTION":"15.06393052","COUNTRY_CODE":"US","SEMIMAJOR_AXIS":"6925.370","ARG_OF_PERICENTER":"69.2334","LAUNCH_DATE":"2020-10-18"},{"RA_OF_ASC_NODE":"186.8601","TLE_LINE1":"1 46687U 20073T   22013.76520234  .00000707  00000-0  66374-4 0  9994","CENTER_NAME":"EARTH","NORAD_CAT_ID":"46687","MEAN_ELEMENT_THEORY":"SGP4","EPOCH":"2022-01-13T18:21:53.482176","RCS_SIZE":"LARGE","TIME_SYSTEM":"UTC","OBJECT_TYPE":"PAYLOAD","MEAN_ANOMALY":"281.4335","OBJECT_ID":"2020-073T","COUNTRY_CODE":"US","MEAN_MOTION":"15.06390080","SEMIMAJOR_AXIS":"6925.379","ARG_OF_PERICENTER":"78.6909","LAUNCH_DATE":"2020-10-18","REV_AT_EPOCH":"6892","REF_FRAME":"TEME","BSTAR":"0.00006637400000","INCLINATION":"53.0545","ECCENTRICITY":"0.00022660","FILE":"3272312","GP_ID":"193811672","APOAPSIS":"548.813","OBJECT_NAME":"STARLINK-1784","PERIAPSIS":"545.675","TLE_LINE2":"2 46687  53.0545 186.8601 0002266  78.6909 281.4335 15.06390080 68923","MEAN_MOTION_DOT":"0.00000707","ELEMENT_SET_NO":"999","DECAY_DATE":null,"CLASSIFICATION_TYPE":"U","SITE":"AFETR","EPHEMERIS_TYPE":"0","MEAN_MOTION_DDOT":"0.0000000000000","PERIOD":"95.593"},{"LAUNCH_DATE":"2020-10-18","SEMIMAJOR_AXIS":"6680.466","ARG_OF_PERICENTER":"274.6508","MEAN_MOTION":"15.89983357","COUNTRY_CODE":"US","REV_AT_EPOCH":"6911","RCS_SIZE":"LARGE","TIME_SYSTEM":"UTC","OBJECT_TYPE":"PAYLOAD","RA_OF_ASC_NODE":"173.5212","EPOCH":"2022-01-13T17:32:05.477280","MEAN_ELEMENT_THEORY":"SGP4","NORAD_CAT_ID":"46688","TLE_LINE1":"1 46688U 20073U   22013.73061895  .00383304  65691-4  12584-2 0  9995","CENTER_NAME":"EARTH","OBJECT_ID":"2020-073U","MEAN_ANOMALY":"85.3600","ELEMENT_SET_NO":"999","MEAN_MOTION_DOT":"0.00383304","CLASSIFICATION_TYPE":"U","SITE":"AFETR","DECAY_DATE":null,"OBJECT_NAME":"STARLINK-1786","TLE_LINE2":"2 46688  53.0525 173.5212 0008029 274.6508  85.3600 15.89983357 69113","PERIAPSIS":"296.968","PERIOD":"90.567","MEAN_MOTION_DDOT":"0.0000656910000","EPHEMERIS_TYPE":"0","BSTAR":"0.00125840000000","INCLINATION":"53.0525","REF_FRAME":"TEME","APOAPSIS":"307.695","GP_ID":"193810420","FILE":"3272312","ECCENTRICITY":"0.00080290"}];
